1 27424U 02022A   10048.83110287 +.00000185 +00000-0 +51190-4 0 05640
2 27424 098.2075 352.1046 0001699 089.3128 270.8271 14.57116884414538